NORAD_CAT_ID,OBJECT_NAME,OBJECT_TYPE,EPOCH,MEAN_MOTION,ECCENTRICITY,INCLINATION,RA_OF_ASC_NODE,ARG_OF_PERICENTER,MEAN_ANOMALY,BSTAR,MEAN_MOTION_DOT,MEAN_MOTION_DDOT,TLE_LINE0,TLE_LINE1,TLE_LINE2,SEMIMAJOR_AXIS,PERIOD,APOGEE,PERIGEE,DECAYED
55306.0,STARLINK-5295,PAYLOAD,2024-03-18 21:55:38,14.98330572,0.0002629,70.0021,21.9243,261.3168,98.7693,1.8315e-05,1.26e-06,0.0,0 STARLINK-5295,1 55306U 23010AP  24078.91363961  .00000126  00000-0  18315-4 0  9995,2 55306  70.0021  21.9243 0002629 261.3168  98.7693 14.98330572 65801,6950.191,96.107,573.883,570.229,0.0
55306.0,STARLINK-5295,PAYLOAD,2024-03-19 05:56:18,14.98334045,0.0002658,70.0021,21.082,270.7744,89.3111,6.492e-05,6.82e-06,0.0,0 STARLINK-5295,1 55306U 23010AP  24079.24743637  .00000682  00000-0  64920-4 0  9994,2 55306  70.0021  21.0820 0002658 270.7744  89.3111 14.98334045 65854,6950.18,96.107,573.893,570.198,0.0
55306.0,STARLINK-5295,PAYLOAD,2024-03-19 21:57:38,14.98337424,0.0002708,70.0023,19.3988,271.5431,88.5418,7.3048e-05,7.79e-06,0.0,0 STARLINK-5295,1 55306U 23010AP  24079.91503158  .00000779  00000-0  73048-4 0  9998,2 55306  70.0023  19.3988 0002708 271.5431  88.5418 14.98337424 65630,6950.17,96.107,573.917,570.153,0.0
55306.0,STARLINK-5295,PAYLOAD,2024-03-20 05:58:18,14.98335232,0.0002569,70.0025,18.5572,268.3109,91.7756,0.00025581,2.961e-05,0.0,0 STARLINK-5295,1 55306U 23010AP  24080.24882629  .00002961  00000-0  25581-3 0  9992,2 55306  70.0025  18.5572 0002569 268.3109  91.7756 14.98335232 66001,6950.177,96.107,573.827,570.256,0.0
55306.0,STARLINK-5295,PAYLOAD,2024-03-20 20:23:31,14.98327577,0.0001761,70.0054,17.0465,260.5722,99.5238,5.9222e-05,6.14e-06,0.0,0 STARLINK-5295,1 55306U 23010AP  24080.84967573  .00000614  00000-0  59222-4 0  9993,2 55306  70.0054  17.0465 0001761 260.5722  99.5238 14.98327577 65773,6950.2,96.107,573.289,570.841,0.0
55306.0,STARLINK-5295,PAYLOAD,2024-03-20 21:59:40,14.98326044,0.000272,70.002,16.8746,267.9697,92.1151,-9.1288e-05,-1.182e-05,0.0,0 STARLINK-5295,1 55306U 23010AP  24080.91644097 -.00001182  00000-0 -91288-4 0  9995,2 55306  70.0020  16.8746 0002720 267.9697  92.1151 14.98326044 66102,6950.205,96.107,573.961,570.18,0.0
55306.0,STARLINK-5295,PAYLOAD,2024-03-21 04:24:13,14.98322685,0.0002873,70.0021,16.2007,272.8669,87.2161,-0.00012111,-1.537e-05,0.0,0 STARLINK-5295,1 55306U 23010AP  24081.18348402 -.00001537  00000-0 -12111-3 0  9997,2 55306  70.0021  16.2007 0002873 272.8669  87.2161 14.98322685 65821,6950.216,96.107,574.077,570.084,0.0
55306.0,STARLINK-5295,PAYLOAD,2024-03-21 12:24:52,14.98328961,0.0002857,70.002,15.3594,271.1013,88.9819,-7.5593e-05,-9.95e-06,0.0,0 STARLINK-5295,1 55306U 23010AP  24081.51727944 -.00000995  00000-0 -75593-4 0  9997,2 55306  70.0020  15.3594 0002857 271.1013  88.9819 14.98328961 65874,6950.196,96.107,574.047,570.075,0.0
55306.0,STARLINK-5295,PAYLOAD,2024-03-21 22:01:40,14.98334381,0.0003117,70.0012,14.3485,271.8957,88.1845,-8.099e-05,-1.059e-05,0.0,0 STARLINK-5295,1 55306U 23010AP  24081.91783554 -.00001059  00000-0 -80990-4 0  9999,2 55306  70.0012  14.3485 0003117 271.8957  88.1845 14.98334381 66254,6950.179,96.107,574.211,569.878,0.0
55306.0,STARLINK-5295,PAYLOAD,2024-03-22 04:26:12,14.98344911,0.0002405,70.0027,13.6776,260.9235,99.1652,4.6322e-05,4.6e-06,0.0,0 STARLINK-5295,1 55306U 23010AP  24082.18486361  .00000460  00000-0  46322-4 0  9999,2 55306  70.0027  13.6776 0002405 260.9235  99.1652 14.98344911 65978,6950.147,96.106,573.683,570.34,0.0
55306.0,STARLINK-5295,PAYLOAD,2024-03-22 06:02:19,14.98349233,0.000276,70.0019,13.5086,252.2352,107.8506,7.2862e-05,7.77e-06,0.0,0 STARLINK-5295,1 55306U 23010AP  24082.25161827  .00000777  00000-0  72862-4 0  9993,2 55306  70.0019  13.5086 0002760 252.2352 107.8506 14.98349233 66305,6950.133,96.106,573.917,570.08,0.0
55306.0,STARLINK-5295,PAYLOAD,2024-03-22 20:27:34,14.98316332,0.0002501,70.0011,11.9889,260.134,99.9536,0.00010916,1.209e-05,0.0,0 STARLINK-5295,1 55306U 23010AP  24082.85247889  .00001209  00000-0  10916-3 0  9994,2 55306  70.0011  11.9889 0002501 260.1340  99.9536 14.98316332 66070,6950.235,96.108,573.838,570.362,0.0
55306.0,STARLINK-5295,PAYLOAD,2024-03-22 22:03:42,14.98315714,0.0002753,70.0,11.8202,263.5582,96.5264,6.5393e-05,6.87e-06,0.0,0 STARLINK-5295,1 55306U 23010AP  24082.91924082  .00000687  00000-0  65393-4 0  9997,2 55306  70.0000  11.8202 0002753 263.5582  96.5264 14.98315714 66401,6950.237,96.108,574.015,570.189,0.0
55306.0,STARLINK-5295,PAYLOAD,2024-03-23 20:29:36,14.98323,0.0002676,70.0019,9.468,268.716,91.3693,-0.00011145,-1.422e-05,0.0,0 STARLINK-5295,1 55306U 23010AP  24083.85389029 -.00001422  00000-0 -11145-3 0  9992,2 55306  70.0019   9.4680 0002676 268.7160  91.3693 14.98323000 66223,6950.215,96.107,573.939,570.22,0.0
55306.0,STARLINK-5295,PAYLOAD,2024-03-23 22:05:44,14.98321753,0.0002735,70.0017,9.2999,268.6948,91.3898,-0.00010704,-1.37e-05,0.0,0 STARLINK-5295,1 55306U 23010AP  24083.92065121 -.00001370  00000-0 -10704-3 0  9996,2 55306  70.0017   9.2999 0002735 268.6948  91.3898 14.98321753 66557,6950.218,96.108,573.984,570.183,0.0
55306.0,STARLINK-5295,PAYLOAD,2024-03-24 04:30:16,14.98328658,0.0002528,70.0016,8.627,256.7713,103.3164,-9.8967e-05,-1.273e-05,0.0,0 STARLINK-5295,1 55306U 23010AP  24084.18768742 -.00001273  00000-0 -98967-4 0  9994,2 55306  70.0016   8.6270 0002528 256.7713 103.3164 14.98328658 66594,6950.197,96.107,573.819,570.305,0.0
55306.0,STARLINK-5295,PAYLOAD,2024-03-24 20:31:37,14.98316556,0.000261,70.0019,6.9434,265.7345,94.3515,0.00011253,1.25e-05,0.0,0 STARLINK-5295,1 55306U 23010AP  24084.85529395  .00001250  00000-0  11253-3 0  9992,2 55306  70.0019   6.9434 0002610 265.7345  94.3515 14.98316556 66372,6950.234,96.108,573.913,570.285,0.0
55306.0,STARLINK-5295,PAYLOAD,2024-03-24 22:07:45,14.98317084,0.0002494,70.0021,6.7749,262.7528,97.3348,0.00012594,1.41e-05,0.0,0 STARLINK-5295,1 55306U 23010AP  24084.92205382  .00001410  00000-0  12594-3 0  9994,2 55306  70.0021   6.7749 0002494 262.7528  97.3348 14.98317084 66703,6950.233,96.108,573.831,570.364,0.0
55306.0,STARLINK-5295,PAYLOAD,2024-03-25 04:32:16,14.98332451,0.0002518,70.0019,6.1036,267.0148,93.0723,0.00024545,2.837e-05,0.0,0 STARLINK-5295,1 55306U 23010AP  24085.18908174  .00002837  00000-0  24545-3 0  9995,2 55306  70.0019   6.1036 0002518 267.0148  93.0723 14.98332451 66420,6950.185,96.107,573.8,570.3,0.0
55306.0,STARLINK-5295,PAYLOAD,2024-03-25 20:33:41,14.98277351,0.000299,70.0013,4.4191,283.1306,76.952,-0.00047816,-5.786e-05,0.0,0 STARLINK-5295,1 55306U 23010AP  24085.85673587 -.00005786  00000-0 -47816-3 0  9990,2 55306  70.0013   4.4191 0002990 283.1306  76.9520 14.98277351 66529,6950.356,96.11,574.299,570.143,0.0
55306.0,STARLINK-5295,PAYLOAD,2024-03-25 22:09:50,14.98279448,0.0003504,70.0009,4.251,291.8767,68.2019,-0.00046745,-5.659e-05,0.0,0 STARLINK-5295,1 55306U 23010AP  24085.92349678 -.00005659  00000-0 -46745-3 0  9998,2 55306  70.0009   4.2510 0003504 291.8767  68.2019 14.98279448 66858,6950.349,96.11,574.65,569.779,0.0
55306.0,STARLINK-5295,PAYLOAD,2024-03-26 04:34:19,14.98320732,0.0002502,70.0016,3.5769,271.892,88.1952,2.0026e-05,1.46e-06,0.0,0 STARLINK-5295,1 55306U 23010AP  24086.19050278  .00000146  00000-0  20026-4 0  9992,2 55306  70.0016   3.5769 0002502 271.8920  88.1952 14.98320732 66579,6950.222,96.108,573.825,570.348,0.0
55306.0,STARLINK-5295,PAYLOAD,2024-03-26 20:35:39,14.98338573,0.000312,69.9996,1.892,272.3804,87.6997,2.0103e-05,1.47e-06,0.0,0 STARLINK-5295,1 55306U 23010AP  24086.85809136  .00000147  00000-0  20103-4 0  9997,2 55306  69.9996   1.8920 0003120 272.3804  87.6997 14.98338573 66673,6950.166,96.106,574.2,569.863,0.0
55306.0,STARLINK-5295,PAYLOAD,2024-03-26 22:11:47,14.98340065,0.0003024,69.9998,1.7237,274.8212,85.2602,3.8848e-05,3.71e-06,0.0,0 STARLINK-5295,1 55306U 23010AP  24086.92484992  .00000371  00000-0  38848-4 0  9998,2 55306  69.9998   1.7237 0003024 274.8212  85.2602 14.98340065 67002,6950.162,96.106,574.128,569.925,0.0
55306.0,STARLINK-5295,PAYLOAD,2024-03-27 04:36:18,14.98350574,0.0002526,70.0011,1.0526,271.5092,88.5778,0.00021363,2.458e-05,0.0,0 STARLINK-5295,1 55306U 23010AP  24087.19187665  .00002458  00000-0  21363-3 0  9996,2 55306  70.0011   1.0526 0002526 271.5092  88.5778 14.98350574 66725,6950.129,96.106,573.75,570.239,0.0
55306.0,STARLINK-5295,PAYLOAD,2024-03-27 11:00:50,14.98354943,0.0002292,70.0036,0.378,274.0558,86.0339,-0.00010075,-1.296e-05,0.0,0 STARLINK-5295,1 55306U 23010AP  24087.45891834 -.00001296  00000-0 -10075-3 0  9994,2 55306  70.0036   0.3780 0002292 274.0558  86.0339 14.98354943 67081,6950.116,96.105,573.574,570.388,0.0
55306.0,STARLINK-5295,PAYLOAD,2024-03-27 20:37:39,14.98332346,0.0002498,70.0019,359.3698,272.1022,87.9851,0.00016485,1.875e-05,0.0,0 STARLINK-5295,1 55306U 23010AP  24087.85948376  .00001875  00000-0  16485-3 0  9994,2 55306  70.0019 359.3698 0002498 272.1022  87.9851 14.98332346 66823,6950.186,96.107,573.787,570.314,0.0
55306.0,STARLINK-5295,PAYLOAD,2024-03-27 22:13:47,14.98330552,0.0002592,70.002,359.2022,270.7402,89.346,0.00017204,1.96e-05,0.0,0 STARLINK-5295,1 55306U 23010AP  24087.92624444  .00001960  00000-0  17204-3 0  9994,2 55306  70.0020 359.2022 0002592 270.7402  89.3460 14.98330552 67152,6950.191,96.107,573.858,570.255,0.0
55306.0,STARLINK-5295,PAYLOAD,2024-03-28 11:02:50,14.98347874,0.0002835,70.0003,357.8516,279.9196,80.1643,0.0001583,1.797e-05,0.0,0 STARLINK-5295,1 55306U 23010AP  24088.46031166  .00001797  00000-0  15830-3 0  9998,2 55306  70.0003 357.8516 0002835 279.9196  80.1643 14.98347874 66916,6950.138,96.106,573.973,570.032,0.0
55306.0,STARLINK-5295,PAYLOAD,2024-03-28 22:15:48,14.98334613,0.0002608,70.0012,356.6771,271.9657,88.1203,-0.00023478,-2.893e-05,0.0,0 STARLINK-5295,1 55306U 23010AP  24088.92764776 -.00002893  00000-0 -23478-3 0  9996,2 55306  70.0012 356.6771 0002608 271.9657  88.1203 14.98334613 67309,6950.179,96.107,573.856,570.231,0.0
